{
  "norad_id": 60083,
  "name": "KINEIS-1E",
  "history": [
    {
      "epoch": "2026-03-27T14:18:52.956864",
      "apogee_km": 629.3593075673207,
      "perigee_km": 625.89145518854,
      "latitude_deg": 36.882759008742724,
      "longitude_deg": 149.5588409602642,
      "semi_major_axis_km": 7005.76238137793,
      "eccentricity": 0.0002475,
      "inclination_deg": 97.9711,
      "raan_deg": 111.044,
      "arg_perigee_deg": 98.8882,
      "mean_anomaly_deg": 261.261,
      "mean_motion_rev_day": 14.80538337
    }
  ]
}